{"fetched_at":"2026-07-18T17:30:16.247Z","source":"https://celestrak.org/NORAD/elements/gp.php?NAME=SENTINEL&FORMAT=JSON","constellation":"sentinel-6","records":[{"OBJECT_NAME":"SENTINEL-6A","OBJECT_ID":"2020-086A","EPOCH":"2026-07-18T00:05:06.974016","CLASSIFICATION_TYPE":"U","MEAN_MOTION":12.80930218,"ECCENTRICITY":0.00077743,"INCLINATION":66.0412,"RA_OF_ASC_NODE":71.0475,"ARG_OF_PERICENTER":269.6912,"MEAN_ANOMALY":90.3213,"EPHEMERIS_TYPE":0,"NORAD_CAT_ID":46984,"ELEMENT_SET_NO":999,"REV_AT_EPOCH":26427,"BSTAR":0.000064038256,"MEAN_MOTION_DOT":-4.6e-7,"MEAN_MOTION_DDOT":0},{"OBJECT_NAME":"SENTINEL-6B","OBJECT_ID":"2025-264A","EPOCH":"2026-07-18T01:58:02.796384","CLASSIFICATION_TYPE":"U","MEAN_MOTION":12.80930219,"ECCENTRICITY":0.0007832,"INCLINATION":66.0411,"RA_OF_ASC_NODE":71.0106,"ARG_OF_PERICENTER":268.531,"MEAN_ANOMALY":91.4808,"EPHEMERIS_TYPE":0,"NORAD_CAT_ID":66514,"ELEMENT_SET_NO":999,"REV_AT_EPOCH":3112,"BSTAR":0.000059850662,"MEAN_MOTION_DOT":-4.7e-7,"MEAN_MOTION_DDOT":0}]}
