SENTINEL-6A             
1 46984U 20086A   26199.00355294 -.00000046  00000+0  64038-4 0  9997
2 46984  66.0412  71.0475 0007774 269.6912  90.3213 12.80930218264279
SENTINEL-6B             
1 66514U 25264A   26199.08197681 -.00000047  00000+0  59851-4 0  9991
2 66514  66.0411  71.0106 0007832 268.5310  91.4808 12.80930219 31124
